NORAD_CAT_ID,OBJECT_NAME,OBJECT_TYPE,EPOCH,MEAN_MOTION,ECCENTRICITY,INCLINATION,RA_OF_ASC_NODE,ARG_OF_PERICENTER,MEAN_ANOMALY,BSTAR,MEAN_MOTION_DOT,MEAN_MOTION_DDOT,TLE_LINE0,TLE_LINE1,TLE_LINE2,SEMIMAJOR_AXIS,PERIOD,APOGEE,PERIGEE,DECAYED
54010.0,STARLINK-5127,PAYLOAD,2024-02-14 02:42:25,15.08847212,0.0001735,53.2181,351.1257,77.114,283.0046,0.00011873,1.602e-05,0.0,0 STARLINK-5127,1 54010U 22125AY  24045.11279683  .00001602  00000-0  11873-3 0  9996,2 54010  53.2181 351.1257 0001735  77.1140 283.0046 15.08847212 75746,6917.858,95.437,540.924,538.523,0.0
54010.0,STARLINK-5127,PAYLOAD,2024-02-14 05:53:10,15.08863572,0.0001585,53.2194,350.525,103.616,256.5009,0.00012943,1.774e-05,0.0,0 STARLINK-5127,1 54010U 22125AY  24045.24526190  .00001774  00000-0  12943-3 0  9997,2 54010  53.2194 350.5250 0001585 103.6160 256.5009 15.08863572 75769,6917.808,95.436,540.77,538.577,0.0
54010.0,STARLINK-5127,PAYLOAD,2024-02-14 13:50:07,15.08842408,0.0001892,53.2194,349.0418,82.4501,277.6706,-4.8707e-05,-1.063e-05,0.0,0 STARLINK-5127,1 54010U 22125AY  24045.57648083 -.00001063  00000-0 -48707-4 0  9990,2 54010  53.2194 349.0418 0001892  82.4501 277.6706 15.08842408 75765,6917.873,95.437,541.047,538.429,0.0
54010.0,STARLINK-5127,PAYLOAD,2024-02-15 02:33:13,15.08838521,0.0001829,53.2197,346.661,97.6542,262.4657,5.1456e-05,5.31e-06,0.0,0 STARLINK-5127,1 54010U 22125AY  24046.10640436  .00000531  00000-0  51456-4 0  9996,2 54010  53.2197 346.6610 0001829  97.6542 262.4657 15.08838521 75845,6917.885,95.438,541.015,538.485,0.0
54010.0,STARLINK-5127,PAYLOAD,2024-02-16 00:48:37,15.08838953,0.0001852,53.2195,342.5024,95.5271,264.5932,3.001e-05,1.89e-06,0.0,0 STARLINK-5127,1 54010U 22125AY  24047.03376730  .00000189  00000-0  30010-4 0  9994,2 54010  53.2195 342.5024 0001852  95.5271 264.5932 15.08838953 76039,6917.884,95.438,541.03,538.467,0.0
54010.0,STARLINK-5127,PAYLOAD,2024-02-17 02:14:47,15.08844798,0.0001669,53.2198,337.7437,110.1075,250.0097,0.00010918,1.45e-05,0.0,0 STARLINK-5127,1 54010U 22125AY  24048.09360145  .00001450  00000-0  10918-3 0  9990,2 54010  53.2198 337.7437 0001669 110.1075 250.0097 15.08844798 76191,6917.866,95.437,540.885,538.576,0.0
54010.0,STARLINK-5127,PAYLOAD,2024-02-17 11:47:06,15.08842011,0.000152,53.2181,335.9519,93.514,266.6026,8.2063e-05,1.018e-05,0.0,0 STARLINK-5127,1 54010U 22125AY  24048.49104286  .00001018  00000-0  82063-4 0  9997,2 54010  53.2181 335.9519 0001520  93.5140 266.6026 15.08842011 76200,6917.874,95.437,540.791,538.688,0.0
54010.0,STARLINK-5127,PAYLOAD,2024-02-17 22:54:48,15.08835304,0.0001663,53.2182,333.8726,120.1402,239.9755,-0.00010554,-1.967e-05,0.0,0 STARLINK-5127,1 54010U 22125AY  24048.95472643 -.00001967  00000-0 -10554-3 0  9993,2 54010  53.2182 333.8726 0001663 120.1402 239.9755 15.08835304 76270,6917.895,95.438,540.91,538.609,0.0
54010.0,STARLINK-5127,PAYLOAD,2024-02-18 03:40:57,15.08848985,0.0001485,53.2186,332.9835,120.1885,239.9254,0.00016321,2.311e-05,0.0,0 STARLINK-5127,1 54010U 22125AY  24049.15343964  .00002311  00000-0  16321-3 0  9999,2 54010  53.2186 332.9835 0001485 120.1885 239.9254 15.08848985 76354,6917.853,95.437,540.745,538.691,0.0
54010.0,STARLINK-5127,PAYLOAD,2024-02-18 11:37:53,15.08843459,0.0001363,53.2183,331.4966,118.4221,241.6909,0.00012561,1.712e-05,0.0,0 STARLINK-5127,1 54010U 22125AY  24049.48464353  .00001712  00000-0  12561-3 0  9997,2 54010  53.2183 331.4966 0001363 118.4221 241.6909 15.08843459 76403,6917.87,95.437,540.678,538.792,0.0
54010.0,STARLINK-5127,PAYLOAD,2024-02-18 22:45:35,15.0884522,0.0001727,53.218,329.4168,106.8135,253.3047,-5.9128e-05,-1.229e-05,0.0,0 STARLINK-5127,1 54010U 22125AY  24049.94832983 -.00001229  00000-0 -59128-4 0  9992,2 54010  53.2180 329.4168 0001727 106.8135 253.3047 15.08845220 76423,6917.864,95.437,540.924,538.535,0.0
54010.0,STARLINK-5127,PAYLOAD,2024-02-19 11:28:40,15.08842654,0.0001661,53.2205,327.0369,95.9049,264.2133,-1.0114e-05,-4.49e-06,0.0,0 STARLINK-5127,1 54010U 22125AY  24050.47824934 -.00000449  00000-0 -10114-4 0  9994,2 54010  53.2205 327.0369 0001661  95.9049 264.2133 15.08842654 76556,6917.872,95.437,540.886,538.588,0.0
54010.0,STARLINK-5127,PAYLOAD,2024-02-19 22:36:23,15.0883126,0.0001851,53.2191,324.9562,103.313,256.8068,4.7759e-05,4.72e-06,0.0,0 STARLINK-5127,1 54010U 22125AY  24050.94193721  .00000472  00000-0  47759-4 0  9998,2 54010  53.2191 324.9562 0001851 103.3130 256.8068 15.08831260 76574,6917.907,95.438,541.053,538.492,0.0
54010.0,STARLINK-5127,PAYLOAD,2024-02-20 03:22:32,15.08841577,0.0001466,53.2193,324.0641,108.4862,251.6289,-2.0346e-05,-6.12e-06,0.0,0 STARLINK-5127,1 54010U 22125AY  24051.14065281 -.00000612  00000-0 -20346-4 0  9991,2 54010  53.2193 324.0641 0001466 108.4862 251.6289 15.08841577 76609,6917.876,95.437,540.755,538.726,0.0
54010.0,STARLINK-5127,PAYLOAD,2024-02-20 22:27:09,15.08839411,0.0001592,53.2193,320.4969,102.4925,257.6245,0.00010986,1.461e-05,0.0,0 STARLINK-5127,1 54010U 22125AY  24051.93553197  .00001461  00000-0  10986-3 0  9995,2 54010  53.2193 320.4969 0001592 102.4925 257.6245 15.08839411 76721,6917.882,95.438,540.849,538.646,0.0
54010.0,STARLINK-5127,PAYLOAD,2024-02-21 03:13:18,15.08852454,0.0001697,53.2198,319.5986,123.5569,236.5585,0.00010191,1.335e-05,0.0,0 STARLINK-5127,1 54010U 22125AY  24052.13424266  .00001335  00000-0  10191-3 0  9990,2 54010  53.2198 319.5986 0001697 123.5569 236.5585 15.08852454 76802,6917.842,95.437,540.881,538.533,0.0
54010.0,STARLINK-5127,PAYLOAD,2024-02-21 11:10:14,15.08840654,0.0001278,53.2204,318.1153,111.7305,248.3823,7.1564e-05,8.51e-06,0.0,0 STARLINK-5127,1 54010U 22125AY  24052.46545044  .00000851  00000-0  71564-4 0  9998,2 54010  53.2204 318.1153 0001278 111.7305 248.3823 15.08840654 76853,6917.878,95.438,540.627,538.859,0.0
54010.0,STARLINK-5127,PAYLOAD,2024-02-21 22:17:57,15.08836077,0.0001572,53.2195,316.0313,103.5733,256.5434,0.00012987,1.779e-05,0.0,0 STARLINK-5127,1 54010U 22125AY  24052.92913224  .00001779  00000-0  12987-3 0  9991,2 54010  53.2195 316.0313 0001572 103.5733 256.5434 15.08836077 76873,6917.892,95.438,540.845,538.67,0.0
54010.0,STARLINK-5127,PAYLOAD,2024-02-22 11:01:02,15.0883982,0.0001458,53.2185,313.6561,95.6667,264.4492,4.1142e-05,3.67e-06,0.0,0 STARLINK-5127,1 54010U 22125AY  24053.45905372  .00000367  00000-0  41142-4 0  9993,2 54010  53.2185 313.6561 0001458  95.6667 264.4492 15.08839820 76950,6917.881,95.438,540.755,538.737,0.0
54010.0,STARLINK-5127,PAYLOAD,2024-02-22 22:08:43,15.08847298,0.0001383,53.2178,311.5739,97.7527,262.3622,-1.5586e-05,-5.36e-06,0.0,0 STARLINK-5127,1 54010U 22125AY  24053.92273019 -.00000536  00000-0 -15586-4 0  9994,2 54010  53.2178 311.5739 0001383  97.7527 262.3622 15.08847298 77020,6917.858,95.437,540.68,538.766,0.0
54010.0,STARLINK-5127,PAYLOAD,2024-02-23 02:54:52,15.08843871,0.0001815,53.2176,310.6807,127.8507,232.2649,0.00012836,1.756e-05,0.0,0 STARLINK-5127,1 54010U 22125AY  24054.12144577  .00001756  00000-0  12836-3 0  9990,2 54010  53.2176 310.6807 0001815 127.8507 232.2649 15.08843871 77104,6917.869,95.437,540.989,538.478,0.0
54010.0,STARLINK-5127,PAYLOAD,2024-02-23 20:24:08,15.0883693,0.0001388,53.2177,307.4122,89.7885,270.3267,4.886e-05,4.9e-06,0.0,0 STARLINK-5127,1 54010U 22125AY  24054.85009519  .00000490  00000-0  48860-4 0  9997,2 54010  53.2177 307.4122 0001388  89.7885 270.3267 15.08836930 77218,6917.89,95.438,540.715,538.795,0.0
54010.0,STARLINK-5127,PAYLOAD,2024-02-23 21:59:31,15.08837481,0.0001437,53.2175,307.1148,89.6455,270.4702,5.2422e-05,5.46e-06,0.0,0 STARLINK-5127,1 54010U 22125AY  24054.91633473  .00000546  00000-0  52422-4 0  9997,2 54010  53.2175 307.1148 0001437  89.6455 270.4702 15.08837481 77170,6917.888,95.438,540.747,538.759,0.0
54010.0,STARLINK-5127,PAYLOAD,2024-02-24 09:07:13,15.08840581,0.0001406,53.2175,305.0312,93.1904,266.9249,7.8732e-05,9.65e-06,0.0,0 STARLINK-5127,1 54010U 22125AY  24055.38001283  .00000965  00000-0  78732-4 0  9994,2 54010  53.2175 305.0312 0001406  93.1904 266.9249 15.08840581 77244,6917.879,95.438,540.716,538.771,0.0
54010.0,STARLINK-5127,PAYLOAD,2024-02-25 08:58:00,15.08843095,0.0001282,53.2174,300.5709,98.8516,261.2621,-6.4541e-06,-3.91e-06,0.0,0 STARLINK-5127,1 54010U 22125AY  24056.37361306 -.00000391  00000-0 -64541-5 0  9998,2 54010  53.2174 300.5709 0001282  98.8516 261.2621 15.08843095 77443,6917.871,95.437,540.623,538.849,0.0
54010.0,STARLINK-5127,PAYLOAD,2024-02-25 23:16:27,15.08848853,0.000131,53.2174,297.8979,103.9502,256.1636,0.00015685,2.21e-05,0.0,0 STARLINK-5127,1 54010U 22125AY  24056.96976652  .00002210  00000-0  15685-3 0  9992,2 54010  53.2174 297.8979 0001310 103.9502 256.1636 15.08848853 77485,6917.853,95.437,540.625,538.812,0.0
54010.0,STARLINK-5127,PAYLOAD,2024-02-26 02:27:13,15.08855369,0.0001366,53.2171,297.3014,99.6637,260.451,0.0002108,3.07e-05,0.0,0 STARLINK-5127,1 54010U 22125AY  24057.10224170  .00003070  00000-0  21080-3 0  9991,2 54010  53.2171 297.3014 0001366  99.6637 260.4510 15.08855369 77555,6917.833,95.437,540.643,538.753,0.0
54010.0,STARLINK-5127,PAYLOAD,2024-02-26 15:10:20,15.08837171,0.000236,53.2142,294.9201,83.3798,276.7463,-3.0817e-05,-7.79e-06,0.0,0 STARLINK-5127,1 54010U 22125AY  24057.63217704 -.00000779  00000-0 -30817-4 0  9998,2 54010  53.2142 294.9201 0002360  83.3798 276.7463 15.08837171 77588,6917.889,95.438,541.387,538.121,0.0
54010.0,STARLINK-5127,PAYLOAD,2024-02-26 19:56:29,15.08834778,0.0001416,53.2143,294.0267,94.9138,265.2016,-1.726e-05,-5.63e-06,0.0,0 STARLINK-5127,1 54010U 22125AY  24057.83089487 -.00000563  00000-0 -17260-4 0  9993,2 54010  53.2143 294.0267 0001416  94.9138 265.2016 15.08834778 77665,6917.896,95.438,540.741,538.782,0.0
54010.0,STARLINK-5127,PAYLOAD,2024-02-26 21:31:52,15.08832551,0.0001299,53.2159,293.7286,109.7754,250.3378,1.9709e-05,2.6e-07,0.0,0 STARLINK-5127,1 54010U 22125AY  24057.89713477  .00000026  00000-0  19709-4 0  9994,2 54010  53.2159 293.7286 0001299 109.7754 250.3378 15.08832551 77626,6917.903,95.438,540.667,538.87,0.0
